[{"OBJECT_NAME":"STARLINK-34011","OBJECT_ID":"2025-093K","EPOCH":"2026-03-09T23:47:00.258144","MEAN_MOTION":15.27576868,"ECCENTRICITY":7.618e-5,"INCLINATION":42.9996,"RA_OF_ASC_NODE":76.6048,"ARG_OF_PERICENTER":326.9724,"MEAN_ANOMALY":33.108,"EPHEMERIS_TYPE":0,"CLASSIFICATION_TYPE":"U","NORAD_CAT_ID":63845,"ELEMENT_SET_NO":999,"REV_AT_EPOCH":4779,"BSTAR":0.0012365296,"MEAN_MOTION_DOT":0.00033918,"MEAN_MOTION_DDOT":0},{"OBJECT_NAME":"OBJECT D","OBJECT_ID":"2024-018D","EPOCH":"2026-03-09T19:55:21.548928","MEAN_MOTION":14.55118189,"ECCENTRICITY":0.03718814,"INCLINATION":58.6682,"RA_OF_ASC_NODE":179.3794,"ARG_OF_PERICENTER":4.8806,"MEAN_ANOMALY":355.5692,"EPHEMERIS_TYPE":0,"CLASSIFICATION_TYPE":"U","NORAD_CAT_ID":58852,"ELEMENT_SET_NO":999,"REV_AT_EPOCH":11155,"BSTAR":0.00065583894,"MEAN_MOTION_DOT":7.104e-5,"MEAN_MOTION_DDOT":0}]
